[{"OBJECT_NAME":"TROOP-F2","OBJECT_ID":"2024-149CT","EPOCH":"2026-03-09T19:32:55.399776","MEAN_MOTION":15.71081872,"ECCENTRICITY":0.00034643,"INCLINATION":97.3621,"RA_OF_ASC_NODE":159.7382,"ARG_OF_PERICENTER":230.7595,"MEAN_ANOMALY":129.3361,"EPHEMERIS_TYPE":0,"CLASSIFICATION_TYPE":"U","NORAD_CAT_ID":60557,"ELEMENT_SET_NO":999,"REV_AT_EPOCH":8756,"BSTAR":0.001093104,"MEAN_MOTION_DOT":0.00139132,"MEAN_MOTION_DDOT":0},{"OBJECT_NAME":"STARLINK-11363 [DTC]","OBJECT_ID":"2024-213E","EPOCH":"2026-03-09T08:33:29.037312","MEAN_MOTION":15.69756059,"ECCENTRICITY":0.00015101,"INCLINATION":53.1571,"RA_OF_ASC_NODE":42.8483,"ARG_OF_PERICENTER":61.0784,"MEAN_ANOMALY":299.0385,"EPHEMERIS_TYPE":0,"CLASSIFICATION_TYPE":"U","NORAD_CAT_ID":62012,"ELEMENT_SET_NO":999,"REV_AT_EPOCH":7486,"BSTAR":0.0011620051,"MEAN_MOTION_DOT":0.0014291,"MEAN_MOTION_DDOT":0}]
